LEMUR-2-JK0903EM1407    
1 58336U 23174CJ  26063.23744583  .00039007  00000+0  78883-3 0  9990
2 58336  97.3930 151.2059 0006235 133.7328 226.4439 15.46341513129481
LEMUR-2-MJR092620       
1 58340U 23174CN  26063.18666798  .00018764  00000+0  44189-3 0  9999
2 58340  97.4000 151.5390 0008091 131.8138 228.3801 15.41956965129455
LEMUR-2-NIMBUS2000      
1 58899U 24022A   26063.54709336  .00023874  00000+0  66931-3 0  9994
2 58899  97.4227 272.4139 0010430 129.9215 230.2947 15.36538755116189
LEMUR-2-VALHALLA        
1 58900U 24022B   26063.52544946  .00024429  00000+0  68983-3 0  9995
2 58900  97.4226 272.4276 0011049 125.9269 234.3001 15.36301867116183
LEMUR-2-OBA-NI-JESU     
1 58902U 24022D   26063.10365912  .00129068  00000+0  13455-2 0  9993
2 58902  97.4064 280.8802 0005147  87.0472 273.1375 15.64102290116724
LEMUR-2-CAEL            
1 58903U 24022E   26063.48689036  .00028231  00000+0  76833-3 0  9991
2 58903  97.4213 273.1541 0009399 110.0429 250.1828 15.37438410116238
LEMUR-2-JOHNNYTRUONG    
1 59146U 24043BA  26063.81951788  .00046963  00000+0  75968-3 0  9997
2 59146  97.5254 209.7500 0005352 200.9531 159.1503 15.52682077111805
LEMUR-2-TOMATOKECHUP    
1 60471U 24149D   26063.21168459  .00018789  00000+0  58033-3 0  9995
2 60471  97.3857 145.1558 0000974 202.0815 158.0386 15.33586640 86068
LEMUR-2-STELLA          
1 60533U 24149BT  26063.22414674  .00021461  00000+0  13478-2 0  9992
2 60533  97.6788 145.4033 0001634  95.3806 264.7609 15.09288318 84651
LEMUR-2-MARHISYAM       
1 60536U 24149BW  26063.63421494  .00017869  00000+0  11369-2 0  9992
2 60536  97.6928 146.1484 0003305 118.9697 241.1863 15.08850168 84709
LEMUR-2-AHMED-ASRAR     
1 60576U 24149DN  26063.16730453  .00018810  00000+0  11531-2 0  9990
2 60576  97.7044 147.3869 0002133  38.3163 321.8217 15.10200119 84701
LEMUR-2-LLOYD           
1 60577U 24149DP  26063.21484103  .00017778  00000+0  11884-2 0  9998
2 60577  97.6808 144.4443 0005229 137.8404 222.3226 15.07019177 84575
LEMUR-2-SQUIRRELCOMM    
1 60578U 24149DQ  26063.17870034  .00011541  00000+0  79990-3 0  9991
2 60578  97.6756 144.5090 0006183  57.4864 302.6959 15.05770912 84590
LEMUR-2-SIERRINI        
1 60579U 24149DR  26063.17096648  .00019276  00000+0  12374-2 0  9998
2 60579  97.6891 145.4774 0006136 166.6878 193.4513 15.08495622 84616
LEMUR-2-WILSON          
1 62694U 25009CP  26063.20846699  .00003844  00000+0  35991-3 0  9992
2 62694  97.7081 143.5340 0003839  47.5986 312.5558 14.94639412 61675
LEMUR-2-STAR-FOX        
1 62696U 25009CR  26063.47890514  .00016853  00000+0  13311-2 0  9993
2 62696  97.7060 145.9663 0002237 163.3719 196.7579 15.00754955 61842
