[{"OBJECT_NAME":"LEMUR-2-JK0903EM1407","OBJECT_ID":"2023-174CJ","EPOCH":"2026-03-04T05:41:55.319712","MEAN_MOTION":15.46341513,"ECCENTRICITY":0.00062355,"INCLINATION":97.393,"RA_OF_ASC_NODE":151.2059,"ARG_OF_PERICENTER":133.7328,"MEAN_ANOMALY":226.4439,"EPHEMERIS_TYPE":0,"CLASSIFICATION_TYPE":"U","NORAD_CAT_ID":58336,"ELEMENT_SET_NO":999,"REV_AT_EPOCH":12948,"BSTAR":0.00078883188,"MEAN_MOTION_DOT":0.00039007,"MEAN_MOTION_DDOT":0},{"OBJECT_NAME":"LEMUR-2-MJR092620","OBJECT_ID":"2023-174CN","EPOCH":"2026-03-04T04:28:48.113472","MEAN_MOTION":15.41956965,"ECCENTRICITY":0.00080919,"INCLINATION":97.4,"RA_OF_ASC_NODE":151.539,"ARG_OF_PERICENTER":131.8138,"MEAN_ANOMALY":228.3801,"EPHEMERIS_TYPE":0,"CLASSIFICATION_TYPE":"U","NORAD_CAT_ID":58340,"ELEMENT_SET_NO":999,"REV_AT_EPOCH":12945,"BSTAR":0.00044188874,"MEAN_MOTION_DOT":0.00018764,"MEAN_MOTION_DDOT":0},{"OBJECT_NAME":"LEMUR-2-NIMBUS2000","OBJECT_ID":"2024-022A","EPOCH":"2026-03-04T13:07:48.866304","MEAN_MOTION":15.36538755,"ECCENTRICITY":0.001043,"INCLINATION":97.4227,"RA_OF_ASC_NODE":272.4139,"ARG_OF_PERICENTER":129.9215,"MEAN_ANOMALY":230.2947,"EPHEMERIS_TYPE":0,"CLASSIFICATION_TYPE":"U","NORAD_CAT_ID":58899,"ELEMENT_SET_NO":999,"REV_AT_EPOCH":11618,"BSTAR":0.00066931,"MEAN_MOTION_DOT":0.00023874,"MEAN_MOTION_DDOT":0},{"OBJECT_NAME":"LEMUR-2-VALHALLA","OBJECT_ID":"2024-022B","EPOCH":"2026-03-04T12:36:38.833344","MEAN_MOTION":15.36301867,"ECCENTRICITY":0.0011049,"INCLINATION":97.4226,"RA_OF_ASC_NODE":272.4276,"ARG_OF_PERICENTER":125.9269,"MEAN_ANOMALY":234.3001,"EPHEMERIS_TYPE":0,"CLASSIFICATION_TYPE":"U","NORAD_CAT_ID":58900,"ELEMENT_SET_NO":999,"REV_AT_EPOCH":11618,"BSTAR":0.00068983,"MEAN_MOTION_DOT":0.00024429,"MEAN_MOTION_DDOT":0},{"OBJECT_NAME":"LEMUR-2-OBA-NI-JESU","OBJECT_ID":"2024-022D","EPOCH":"2026-03-04T02:29:16.147968","MEAN_MOTION":15.6410229,"ECCENTRICITY":0.0005147,"INCLINATION":97.4064,"RA_OF_ASC_NODE":280.8802,"ARG_OF_PERICENTER":87.0472,"MEAN_ANOMALY":273.1375,"EPHEMERIS_TYPE":0,"CLASSIFICATION_TYPE":"U","NORAD_CAT_ID":58902,"ELEMENT_SET_NO":999,"REV_AT_EPOCH":11672,"BSTAR":0.0013454866,"MEAN_MOTION_DOT":0.00129068,"MEAN_MOTION_DDOT":0},{"OBJECT_NAME":"LEMUR-2-CAEL","OBJECT_ID":"2024-022E","EPOCH":"2026-03-04T11:41:07.327104","MEAN_MOTION":15.3743841,"ECCENTRICITY":0.00093998,"INCLINATION":97.4213,"RA_OF_ASC_NODE":273.1541,"ARG_OF_PERICENTER":110.0429,"MEAN_ANOMALY":250.1828,"EPHEMERIS_TYPE":0,"CLASSIFICATION_TYPE":"U","NORAD_CAT_ID":58903,"ELEMENT_SET_NO":999,"REV_AT_EPOCH":11623,"BSTAR":0.00076832607,"MEAN_MOTION_DOT":0.00028231,"MEAN_MOTION_DDOT":0},{"OBJECT_NAME":"LEMUR-2-JOHNNYTRUONG","OBJECT_ID":"2024-043BA","EPOCH":"2026-03-04T19:40:06.344832","MEAN_MOTION":15.52682077,"ECCENTRICITY":0.0005352,"INCLINATION":97.5254,"RA_OF_ASC_NODE":209.75,"ARG_OF_PERICENTER":200.9531,"MEAN_ANOMALY":159.1503,"EPHEMERIS_TYPE":0,"CLASSIFICATION_TYPE":"U","NORAD_CAT_ID":59146,"ELEMENT_SET_NO":999,"REV_AT_EPOCH":11180,"BSTAR":0.00075968,"MEAN_MOTION_DOT":0.00046963,"MEAN_MOTION_DDOT":0},{"OBJECT_NAME":"LEMUR-2-TOMATOKECHUP","OBJECT_ID":"2024-149D","EPOCH":"2026-03-04T05:04:49.548576","MEAN_MOTION":15.3358664,"ECCENTRICITY":9.749e-5,"INCLINATION":97.3857,"RA_OF_ASC_NODE":145.1558,"ARG_OF_PERICENTER":202.0815,"MEAN_ANOMALY":158.0386,"EPHEMERIS_TYPE":0,"CLASSIFICATION_TYPE":"U","NORAD_CAT_ID":60471,"ELEMENT_SET_NO":999,"REV_AT_EPOCH":8606,"BSTAR":0.00058032605,"MEAN_MOTION_DOT":0.00018789,"MEAN_MOTION_DDOT":0},{"OBJECT_NAME":"LEMUR-2-STELLA","OBJECT_ID":"2024-149BT","EPOCH":"2026-03-04T05:22:46.278336","MEAN_MOTION":15.09288318,"ECCENTRICITY":0.00016347,"INCLINATION":97.6788,"RA_OF_ASC_NODE":145.4033,"ARG_OF_PERICENTER":95.3806,"MEAN_ANOMALY":264.7609,"EPHEMERIS_TYPE":0,"CLASSIFICATION_TYPE":"U","NORAD_CAT_ID":60533,"ELEMENT_SET_NO":999,"REV_AT_EPOCH":8465,"BSTAR":0.0013478281,"MEAN_MOTION_DOT":0.00021461,"MEAN_MOTION_DDOT":0},{"OBJECT_NAME":"LEMUR-2-MARHISYAM","OBJECT_ID":"2024-149BW","EPOCH":"2026-03-04T15:13:16.170816","MEAN_MOTION":15.08850168,"ECCENTRICITY":0.0003305,"INCLINATION":97.6928,"RA_OF_ASC_NODE":146.1484,"ARG_OF_PERICENTER":118.9697,"MEAN_ANOMALY":241.1863,"EPHEMERIS_TYPE":0,"CLASSIFICATION_TYPE":"U","NORAD_CAT_ID":60536,"ELEMENT_SET_NO":999,"REV_AT_EPOCH":8470,"BSTAR":0.0011369,"MEAN_MOTION_DOT":0.00017869,"MEAN_MOTION_DDOT":0},{"OBJECT_NAME":"LEMUR-2-AHMED-ASRAR","OBJECT_ID":"2024-149DN","EPOCH":"2026-03-04T04:00:55.111392","MEAN_MOTION":15.10200119,"ECCENTRICITY":0.00021334,"INCLINATION":97.7044,"RA_OF_ASC_NODE":147.3869,"ARG_OF_PERICENTER":38.3163,"MEAN_ANOMALY":321.8217,"EPHEMERIS_TYPE":0,"CLASSIFICATION_TYPE":"U","NORAD_CAT_ID":60576,"ELEMENT_SET_NO":999,"REV_AT_EPOCH":8470,"BSTAR":0.0011531258,"MEAN_MOTION_DOT":0.0001881,"MEAN_MOTION_DDOT":0},{"OBJECT_NAME":"LEMUR-2-LLOYD","OBJECT_ID":"2024-149DP","EPOCH":"2026-03-04T05:09:22.264992","MEAN_MOTION":15.07019177,"ECCENTRICITY":0.00052294,"INCLINATION":97.6808,"RA_OF_ASC_NODE":144.4443,"ARG_OF_PERICENTER":137.8404,"MEAN_ANOMALY":222.3226,"EPHEMERIS_TYPE":0,"CLASSIFICATION_TYPE":"U","NORAD_CAT_ID":60577,"ELEMENT_SET_NO":999,"REV_AT_EPOCH":8457,"BSTAR":0.0011884381,"MEAN_MOTION_DOT":0.00017778,"MEAN_MOTION_DDOT":0},{"OBJECT_NAME":"LEMUR-2-SQUIRRELCOMM","OBJECT_ID":"2024-149DQ","EPOCH":"2026-03-04T04:17:19.709376","MEAN_MOTION":15.05770912,"ECCENTRICITY":0.00061831,"INCLINATION":97.6756,"RA_OF_ASC_NODE":144.509,"ARG_OF_PERICENTER":57.4864,"MEAN_ANOMALY":302.6959,"EPHEMERIS_TYPE":0,"CLASSIFICATION_TYPE":"U","NORAD_CAT_ID":60578,"ELEMENT_SET_NO":999,"REV_AT_EPOCH":8459,"BSTAR":0.00079990241,"MEAN_MOTION_DOT":0.00011541,"MEAN_MOTION_DDOT":0},{"OBJECT_NAME":"LEMUR-2-SIERRINI","OBJECT_ID":"2024-149DR","EPOCH":"2026-03-04T04:06:11.503872","MEAN_MOTION":15.08495622,"ECCENTRICITY":0.0006136,"INCLINATION":97.6891,"RA_OF_ASC_NODE":145.4774,"ARG_OF_PERICENTER":166.6878,"MEAN_ANOMALY":193.4513,"EPHEMERIS_TYPE":0,"CLASSIFICATION_TYPE":"U","NORAD_CAT_ID":60579,"ELEMENT_SET_NO":999,"REV_AT_EPOCH":8461,"BSTAR":0.0012373549,"MEAN_MOTION_DOT":0.00019276,"MEAN_MOTION_DDOT":0},{"OBJECT_NAME":"LEMUR-2-WILSON","OBJECT_ID":"2025-009CP","EPOCH":"2026-03-04T05:00:11.547936","MEAN_MOTION":14.94639412,"ECCENTRICITY":0.00038395,"INCLINATION":97.7081,"RA_OF_ASC_NODE":143.534,"ARG_OF_PERICENTER":47.5986,"MEAN_ANOMALY":312.5558,"EPHEMERIS_TYPE":0,"CLASSIFICATION_TYPE":"U","NORAD_CAT_ID":62694,"ELEMENT_SET_NO":999,"REV_AT_EPOCH":6167,"BSTAR":0.00035990692,"MEAN_MOTION_DOT":3.844e-5,"MEAN_MOTION_DDOT":0},{"OBJECT_NAME":"LEMUR-2-STAR-FOX","OBJECT_ID":"2025-009CR","EPOCH":"2026-03-04T11:29:37.404096","MEAN_MOTION":15.00754955,"ECCENTRICITY":0.0002237,"INCLINATION":97.706,"RA_OF_ASC_NODE":145.9663,"ARG_OF_PERICENTER":163.3719,"MEAN_ANOMALY":196.7579,"EPHEMERIS_TYPE":0,"CLASSIFICATION_TYPE":"U","NORAD_CAT_ID":62696,"ELEMENT_SET_NO":999,"REV_AT_EPOCH":6184,"BSTAR":0.0013310624,"MEAN_MOTION_DOT":0.00016853,"MEAN_MOTION_DDOT":0}]
